[{"OBJECT_NAME":"STARLINK-5492","OBJECT_ID":"2023-013A","EPOCH":"2026-03-09T08:24:29.316384","MEAN_MOTION":15.0254349,"ECCENTRICITY":0.00012437,"INCLINATION":43.0035,"RA_OF_ASC_NODE":302.5875,"ARG_OF_PERICENTER":267.5983,"MEAN_ANOMALY":92.4717,"EPHEMERIS_TYPE":0,"CLASSIFICATION_TYPE":"U","NORAD_CAT_ID":55331,"ELEMENT_SET_NO":999,"REV_AT_EPOCH":17273,"BSTAR":-5.7176585e-5,"MEAN_MOTION_DOT":-9.76e-6,"MEAN_MOTION_DDOT":0},{"OBJECT_NAME":"RAPIDEYE 5","OBJECT_ID":"2008-040B","EPOCH":"2026-03-09T15:17:22.403904","MEAN_MOTION":15.02179038,"ECCENTRICITY":0.0014834,"INCLINATION":97.3944,"RA_OF_ASC_NODE":91.3825,"ARG_OF_PERICENTER":86.9831,"MEAN_ANOMALY":273.3091,"EPHEMERIS_TYPE":0,"CLASSIFICATION_TYPE":"U","NORAD_CAT_ID":33313,"ELEMENT_SET_NO":999,"REV_AT_EPOCH":95055,"BSTAR":0.00014028,"MEAN_MOTION_DOT":1.794e-5,"MEAN_MOTION_DDOT":0}]
